IRIDIUM 921 [-]         
1 24873U 97034E   24096.59001285  .00019601  00000+0  58676-3 0  9999
2 24873  86.3837 323.9345 0005077 138.6147 221.5489 15.34402562464039
IRIDIUM 26 [-]          
1 24903U 97043A   24096.52827471  .00000428  00000+0  14004-3 0  9993
2 24903  86.3907 294.2670 0002292  91.3349 268.8111 14.36266603393905
IRIDIUM 22 [-]          
1 24907U 97043E   24096.52780789  .00000401  00000+0  13354-3 0  9995
2 24907  86.3914 297.4488 0002043  89.9979 270.1452 14.35159938393988
DUMMY MASS 1 [-]        
1 24925U 97048A   24096.61027963  .00000424  00000+0  45192-4 0  9999
2 24925  86.3370 337.5379 0004496 251.1211 108.9527 14.86123473440126
DUMMY MASS 2 [-]        
1 24926U 97048B   24096.16370857  .00000432  00000+0  46401-4 0  9996
2 24926  86.3372 339.2735 0005230 270.3451  89.7174 14.85882175440089
IRIDIUM 29 [-]          
1 24944U 97051A   24096.62320890  .00000364  00000+0  11962-3 0  9990
2 24944  86.3962 327.3447 0001896  90.0307 270.1106 14.35619560390472
IRIDIUM 33 [-]          
1 24946U 97051C   24096.58252738  .00000249  00000+0  81795-4 0  9996
2 24946  86.3877 326.6188 0009925  71.2021 289.0251 14.34302330390000
IRIDIUM 28 [-]          
1 24948U 97051E   24096.60546681  .00000355  00000+0  11418-3 0  9996
2 24948  86.3963 325.1188 0002560  86.4465 273.7025 14.36568414391009
